[
    {
        "Altitude(m)": 553860.0036111743,
        "Argument of Periapsis(deg)": 0.006622991110713501,
        "Eccentricity": 0.0,
        "Inclination(deg)": 53.0,
        "Latitude(deg)": 3.4930217816509748,
        "Longitude(deg)": 136.60516667003193,
        "Mean Anomaly(deg)": 175.54619286757756,
        "RAAN(deg)": 59.99014336852801,
        "Satellite Name": "Starlink Shell 1 274",
        "Satellite Number": 274,
        "Semi-Major Axis(m)": 6931778.249405717,
        "Time(s)": 190
    },
    {
        "Altitude(m)": 553907.2834729378,
        "Argument of Periapsis(deg)": 0.0069715695902247375,
        "Eccentricity": 0.0,
        "Inclination(deg)": 53.0,
        "Latitude(deg)": 2.9894956684083636,
        "Longitude(deg)": 136.9417771592696,
        "Mean Anomaly(deg)": 176.17302407113428,
        "RAAN(deg)": 59.98962459845053,
        "Satellite Name": "Starlink Shell 1 274",
        "Satellite Number": 274,
        "Semi-Major Axis(m)": 6931778.249405717,
        "Time(s)": 200
    },
    {
        "Altitude(m)": 553957.3830697187,
        "Argument of Periapsis(deg)": 0.007320148069735974,
        "Eccentricity": 0.0,
        "Inclination(deg)": 53.0,
        "Latitude(deg)": 2.4858428181595054,
        "Longitude(deg)": 137.27803740906057,
        "Mean Anomaly(deg)": 176.79985527469108,
        "RAAN(deg)": 59.98910582837307,
        "Satellite Name": "Starlink Shell 1 274",
        "Satellite Number": 274,
        "Semi-Major Axis(m)": 6931778.249405717,
        "Time(s)": 210
    },
    {
        "Altitude(m)": 554010.3017717908,
        "Argument of Periapsis(deg)": 0.007668726549247212,
        "Eccentricity": 0.0,
        "Inclination(deg)": 53.0,
        "Latitude(deg)": 1.9820863166141824,
        "Longitude(deg)": 137.61400534628967,
        "Mean Anomaly(deg)": 177.42668647824775,
        "RAAN(deg)": 59.98858705829559,
        "Satellite Name": "Starlink Shell 1 274",
        "Satellite Number": 274,
        "Semi-Major Axis(m)": 6931778.249405717,
        "Time(s)": 220
    },
    {
        "Altitude(m)": 554066.0375966494,
        "Argument of Periapsis(deg)": 0.00801730502875845,
        "Eccentricity": 0.0,
        "Inclination(deg)": 53.0,
        "Latitude(deg)": 1.4782491878375672,
        "Longitude(deg)": 137.94973876750973,
        "Mean Anomaly(deg)": 178.05351768180446,
        "RAAN(deg)": 59.988068288218116,
        "Satellite Name": "Starlink Shell 1 274",
        "Satellite Number": 274,
        "Semi-Major Axis(m)": 6931778.249405717,
        "Time(s)": 230
    },
    {
        "Altitude(m)": 554124.5872072428,
        "Argument of Periapsis(deg)": 0.008365883508269684,
        "Eccentricity": 0.0,
        "Inclination(deg)": 53.0,
        "Latitude(deg)": 0.9743544060476745,
        "Longitude(deg)": 138.28529586855362,
        "Mean Anomaly(deg)": 178.68034888536116,
        "RAAN(deg)": 59.98754951814065,
        "Satellite Name": "Starlink Shell 1 274",
        "Satellite Number": 274,
        "Semi-Major Axis(m)": 6931778.249405717,
        "Time(s)": 240
    },
    {
        "Altitude(m)": 554185.9459108727,
        "Argument of Periapsis(deg)": 0.008714461987780921,
        "Eccentricity": 0.0,
        "Inclination(deg)": 53.0,
        "Latitude(deg)": 0.4704249073674454,
        "Longitude(deg)": 138.62073426123905,
        "Mean Anomaly(deg)": 179.3071800889179,
        "RAAN(deg)": 59.98703074806318,
        "Satellite Name": "Starlink Shell 1 274",
        "Satellite Number": 274,
        "Semi-Major Axis(m)": 6931778.249405717,
        "Time(s)": 250
    },
    {
        "Altitude(m)": 554250.1076587772,
        "Argument of Periapsis(deg)": 0.009063040467292158,
        "Eccentricity": 0.0,
        "Inclination(deg)": 53.0,
        "Latitude(deg)": -0.03351639846044588,
        "Longitude(deg)": 138.95611150291919,
        "Mean Anomaly(deg)": 179.9340112924746,
        "RAAN(deg)": 59.9865119779857,
        "Satellite Name": "Starlink Shell 1 274",
        "Satellite Number": 274,
        "Semi-Major Axis(m)": 6931778.249405717,
        "Time(s)": 260
    },
    {
        "Altitude(m)": 554317.06504637,
        "Argument of Periapsis(deg)": 0.009411618946803396,
        "Eccentricity": 0.0,
        "Inclination(deg)": 53.0,
        "Latitude(deg)": -0.5374466163824505,
        "Longitude(deg)": 139.2914856260126,
        "Mean Anomaly(deg)": 180.56084249603128,
        "RAAN(deg)": 59.98599320790824,
        "Satellite Name": "Starlink Shell 1 274",
        "Satellite Number": 274,
        "Semi-Major Axis(m)": 6931778.249405717,
        "Time(s)": 270
    },
    {
        "Altitude(m)": 554386.8093141846,
        "Argument of Periapsis(deg)": 0.009760197426314633,
        "Eccentricity": 0.0,
        "Inclination(deg)": 53.0,
        "Latitude(deg)": -1.0413428543543692,
        "Longitude(deg)": 139.62691415464778,
        "Mean Anomaly(deg)": 181.18767369958803,
        "RAAN(deg)": 59.98547443783076,
        "Satellite Name": "Starlink Shell 1 274",
        "Satellite Number": 274,
        "Semi-Major Axis(m)": 6931778.249405717,
        "Time(s)": 280
    },
    {
        "Altitude(m)": 554459.3303494793,
        "Argument of Periapsis(deg)": 0.01010877590582587,
        "Eccentricity": 0.0,
        "Inclination(deg)": 53.0,
        "Latitude(deg)": -1.5451822116647334,
        "Longitude(deg)": 139.96245463417634,
        "Mean Anomaly(deg)": 181.8145049031447,
        "RAAN(deg)": 59.984955667753276,
        "Satellite Name": "Starlink Shell 1 274",
        "Satellite Number": 274,
        "Semi-Major Axis(m)": 6931778.249405717,
        "Time(s)": 290
    },
    {
        "Altitude(m)": 554534.616688534,
        "Argument of Periapsis(deg)": 0.010457354385337106,
        "Eccentricity": 0.0,
        "Inclination(deg)": 53.0,
        "Latitude(deg)": -2.048941767248853,
        "Longitude(deg)": 140.29816516068894,
        "Mean Anomaly(deg)": 182.44133610670147,
        "RAAN(deg)": 59.98443689767582,
        "Satellite Name": "Starlink Shell 1 274",
        "Satellite Number": 274,
        "Semi-Major Axis(m)": 6931778.249405717,
        "Time(s)": 300
    },
    {
        "Altitude(m)": 554612.655519603,
        "Argument of Periapsis(deg)": 0.010805932864848343,
        "Eccentricity": 0.0,
        "Inclination(deg)": 53.0,
        "Latitude(deg)": -2.552598567979207,
        "Longitude(deg)": 140.63410339766776,
        "Mean Anomaly(deg)": 183.0681673102582,
        "RAAN(deg)": 59.983918127598336,
        "Satellite Name": "Starlink Shell 1 274",
        "Satellite Number": 274,
        "Semi-Major Axis(m)": 6931778.249405717,
        "Time(s)": 310
    },
    {
        "Altitude(m)": 554693.4326865753,
        "Argument of Periapsis(deg)": 0.01115451134435958,
        "Eccentricity": 0.0,
        "Inclination(deg)": 53.0,
        "Latitude(deg)": -3.05612961692708,
        "Longitude(deg)": 140.97032710553208,
        "Mean Anomaly(deg)": 183.69499851381485,
        "RAAN(deg)": 59.98339935752086,
        "Satellite Name": "Starlink Shell 1 274",
        "Satellite Number": 274,
        "Semi-Major Axis(m)": 6931778.249405717,
        "Time(s)": 320
    },
    {
        "Altitude(m)": 554776.9326932658,
        "Argument of Periapsis(deg)": 0.011503089823870818,
        "Eccentricity": 0.0,
        "Inclination(deg)": 53.0,
        "Latitude(deg)": -3.559511861579672,
        "Longitude(deg)": 141.30689467120743,
        "Mean Anomaly(deg)": 184.32182971737163,
        "RAAN(deg)": 59.98288058744339,
        "Satellite Name": "Starlink Shell 1 274",
        "Satellite Number": 274,
        "Semi-Major Axis(m)": 6931778.249405717,
        "Time(s)": 330
    },
    {
        "Altitude(m)": 554863.1387084274,
        "Argument of Periapsis(deg)": 0.011851668303382053,
        "Eccentricity": 0.0,
        "Inclination(deg)": 53.0,
        "Latitude(deg)": -4.062722182000185,
        "Longitude(deg)": 141.64386412485453,
        "Mean Anomaly(deg)": 184.94866092092832,
        "RAAN(deg)": 59.98236181736592,
        "Satellite Name": "Starlink Shell 1 274",
        "Satellite Number": 274,
        "Semi-Major Axis(m)": 6931778.249405717,
        "Time(s)": 340
    },
    {
        "Altitude(m)": 554952.032571374,
        "Argument of Periapsis(deg)": 0.012200246782893292,
        "Eccentricity": 0.0,
        "Inclination(deg)": 53.0,
        "Latitude(deg)": -4.565737378925643,
        "Longitude(deg)": 141.9812936695122,
        "Mean Anomaly(deg)": 185.57549212448504,
        "RAAN(deg)": 59.98184304728844,
        "Satellite Name": "Starlink Shell 1 274",
        "Satellite Number": 274,
        "Semi-Major Axis(m)": 6931778.249405717,
        "Time(s)": 350
    },
    {
        "Altitude(m)": 555043.5947983188,
        "Argument of Periapsis(deg)": 0.012548825262404526,
        "Eccentricity": 0.0,
        "Inclination(deg)": 53.0,
        "Latitude(deg)": -5.068534161785262,
        "Longitude(deg)": 142.31924221078498,
        "Mean Anomaly(deg)": 186.2023233280418,
        "RAAN(deg)": 59.98132427721097,
        "Satellite Name": "Starlink Shell 1 274",
        "Satellite Number": 274,
        "Semi-Major Axis(m)": 6931778.249405717,
        "Time(s)": 360
    },
    {
        "Altitude(m)": 555137.8045893506,
        "Argument of Periapsis(deg)": 0.012897403741915765,
        "Eccentricity": 0.0,
        "Inclination(deg)": 53.0,
        "Latitude(deg)": -5.571089136629316,
        "Longitude(deg)": 142.65776837371044,
        "Mean Anomaly(deg)": 186.82915453159845,
        "RAAN(deg)": 59.9808055071335,
        "Satellite Name": "Starlink Shell 1 274",
        "Satellite Number": 274,
        "Semi-Major Axis(m)": 6931778.249405717,
        "Time(s)": 370
    }
]